[{"OBJECT_NAME":"STARLINK-3956","OBJECT_ID":"2022-051AD","EPOCH":"2026-03-09T12:22:59.973888","MEAN_MOTION":15.08833553,"ECCENTRICITY":0.00014173,"INCLINATION":53.2171,"RA_OF_ASC_NODE":119.9012,"ARG_OF_PERICENTER":98.559,"MEAN_ANOMALY":261.5563,"EPHEMERIS_TYPE":0,"CLASSIFICATION_TYPE":"U","NORAD_CAT_ID":52560,"ELEMENT_SET_NO":999,"REV_AT_EPOCH":21155,"BSTAR":-3.2019075e-5,"MEAN_MOTION_DOT":-7.97e-6,"MEAN_MOTION_DDOT":0},{"OBJECT_NAME":"YUNYAO-1 43","OBJECT_ID":"2025-059A","EPOCH":"2026-03-09T23:54:24.516576","MEAN_MOTION":15.10329109,"ECCENTRICITY":0.00157026,"INCLINATION":97.608,"RA_OF_ASC_NODE":250.9377,"ARG_OF_PERICENTER":132.1084,"MEAN_ANOMALY":228.1483,"EPHEMERIS_TYPE":0,"CLASSIFICATION_TYPE":"U","NORAD_CAT_ID":63344,"ELEMENT_SET_NO":999,"REV_AT_EPOCH":5332,"BSTAR":0.00032498885,"MEAN_MOTION_DOT":5.279e-5,"MEAN_MOTION_DDOT":0}]
